CCSDS_OMM_VERS = 2.0
CREATION_DATE  = 
ORIGINATOR     = 

OBJECT_NAME    = STARLINK-36538
OBJECT_ID      = 2026-012V
CENTER_NAME    = EARTH
REF_FRAME      = TEME
TIME_SYSTEM    = UTC
MEAN_ELEMENT_THEORY = SGP/SGP4

EPOCH          = 2026-02-07T06:00:02.999808
MEAN_MOTION    = 15.66576238
ECCENTRICITY   = .00013415
INCLINATION    = 42.9994
RA_OF_ASC_NODE = 128.1425
ARG_OF_PERICENTER = 279.4930
MEAN_ANOMALY   = 142.9350

EPHEMERIS_TYPE = 0
CLASSIFICATION_TYPE = U
NORAD_CAT_ID   = 67512
ELEMENT_SET_NO = 999
REV_AT_EPOCH   = 417
BSTAR          = -.20145621E-1
MEAN_MOTION_DOT = -.1919083E-1
MEAN_MOTION_DDOT = 0

CCSDS_OMM_VERS = 2.0
CREATION_DATE  = 
ORIGINATOR     = 

OBJECT_NAME    = STARLINK-36531
OBJECT_ID      = 2026-012W
CENTER_NAME    = EARTH
REF_FRAME      = TEME
TIME_SYSTEM    = UTC
MEAN_ELEMENT_THEORY = SGP/SGP4

EPOCH          = 2026-02-07T06:00:02.999808
MEAN_MOTION    = 15.67456897
ECCENTRICITY   = .00013471
INCLINATION    = 42.9995
RA_OF_ASC_NODE = 128.1036
ARG_OF_PERICENTER = 279.9606
MEAN_ANOMALY   = 158.2503

EPHEMERIS_TYPE = 0
CLASSIFICATION_TYPE = U
NORAD_CAT_ID   = 67513
ELEMENT_SET_NO = 999
REV_AT_EPOCH   = 411
BSTAR          = -.19432615E-1
MEAN_MOTION_DOT = -.191929E-1
MEAN_MOTION_DDOT = 0

CCSDS_OMM_VERS = 2.0
CREATION_DATE  = 
ORIGINATOR     = 

OBJECT_NAME    = STARLINK-36530
OBJECT_ID      = 2026-012X
CENTER_NAME    = EARTH
REF_FRAME      = TEME
TIME_SYSTEM    = UTC
MEAN_ELEMENT_THEORY = SGP/SGP4

EPOCH          = 2026-02-07T06:00:02.999808
MEAN_MOTION    = 15.66506303
ECCENTRICITY   = .00014208
INCLINATION    = 42.9996
RA_OF_ASC_NODE = 128.1189
ARG_OF_PERICENTER = 277.5962
MEAN_ANOMALY   = 154.1424

EPHEMERIS_TYPE = 0
CLASSIFICATION_TYPE = U
NORAD_CAT_ID   = 67514
ELEMENT_SET_NO = 999
REV_AT_EPOCH   = 411
BSTAR          = -.20206729E-1
MEAN_MOTION_DOT = -.1919428E-1
MEAN_MOTION_DDOT = 0

CCSDS_OMM_VERS = 2.0
CREATION_DATE  = 
ORIGINATOR     = 

OBJECT_NAME    = STARLINK-36543
OBJECT_ID      = 2026-012Y
CENTER_NAME    = EARTH
REF_FRAME      = TEME
TIME_SYSTEM    = UTC
MEAN_ELEMENT_THEORY = SGP/SGP4

EPOCH          = 2026-02-07T06:00:02.999808
MEAN_MOTION    = 15.65503851
ECCENTRICITY   = .00014178
INCLINATION    = 42.9994
RA_OF_ASC_NODE = 128.1399
ARG_OF_PERICENTER = 275.0303
MEAN_ANOMALY   = 148.2868

EPHEMERIS_TYPE = 0
CLASSIFICATION_TYPE = U
NORAD_CAT_ID   = 67515
ELEMENT_SET_NO = 999
REV_AT_EPOCH   = 411
BSTAR          = -.21052232E-1
MEAN_MOTION_DOT = -.1919756E-1
MEAN_MOTION_DDOT = 0

CCSDS_OMM_VERS = 2.0
CREATION_DATE  = 
ORIGINATOR     = 

OBJECT_NAME    = STARLINK-36537
OBJECT_ID      = 2026-012Z
CENTER_NAME    = EARTH
REF_FRAME      = TEME
TIME_SYSTEM    = UTC
MEAN_ELEMENT_THEORY = SGP/SGP4

EPOCH          = 2026-02-07T06:00:02.999808
MEAN_MOTION    = 15.67548496
ECCENTRICITY   = .00012276
INCLINATION    = 42.9993
RA_OF_ASC_NODE = 128.0394
ARG_OF_PERICENTER = 282.0686
MEAN_ANOMALY   = 181.2589

EPHEMERIS_TYPE = 0
CLASSIFICATION_TYPE = U
NORAD_CAT_ID   = 67516
ELEMENT_SET_NO = 999
REV_AT_EPOCH   = 411
BSTAR          = -.19441456E-1
MEAN_MOTION_DOT = -.1926401E-1
MEAN_MOTION_DDOT = 0

CCSDS_OMM_VERS = 2.0
CREATION_DATE  = 
ORIGINATOR     = 

OBJECT_NAME    = STARLINK-36544
OBJECT_ID      = 2026-012AA
CENTER_NAME    = EARTH
REF_FRAME      = TEME
TIME_SYSTEM    = UTC
MEAN_ELEMENT_THEORY = SGP/SGP4

EPOCH          = 2026-02-07T06:00:02.999808
MEAN_MOTION    = 15.68455346
ECCENTRICITY   = .00012331
INCLINATION    = 42.9994
RA_OF_ASC_NODE = 128.0296
ARG_OF_PERICENTER = 279.0856
MEAN_ANOMALY   = 188.2222

EPHEMERIS_TYPE = 0
CLASSIFICATION_TYPE = U
NORAD_CAT_ID   = 67517
ELEMENT_SET_NO = 999
REV_AT_EPOCH   = 417
BSTAR          = -.18745212E-1
MEAN_MOTION_DOT = -.192825E-1
MEAN_MOTION_DDOT = 0

CCSDS_OMM_VERS = 2.0
CREATION_DATE  = 
ORIGINATOR     = 

OBJECT_NAME    = STARLINK-36412
OBJECT_ID      = 2026-012AB
CENTER_NAME    = EARTH
REF_FRAME      = TEME
TIME_SYSTEM    = UTC
MEAN_ELEMENT_THEORY = SGP/SGP4

EPOCH          = 2026-02-07T06:00:02.999808
MEAN_MOTION    = 15.67666368
ECCENTRICITY   = .00011646
INCLINATION    = 42.9994
RA_OF_ASC_NODE = 127.9932
ARG_OF_PERICENTER = 275.9320
MEAN_ANOMALY   = 205.8308

EPHEMERIS_TYPE = 0
CLASSIFICATION_TYPE = U
NORAD_CAT_ID   = 67518
ELEMENT_SET_NO = 999
REV_AT_EPOCH   = 411
BSTAR          = -.19263702E-1
MEAN_MOTION_DOT = -.1919007E-1
MEAN_MOTION_DDOT = 0

CCSDS_OMM_VERS = 2.0
CREATION_DATE  = 
ORIGINATOR     = 

OBJECT_NAME    = STARLINK-36415
OBJECT_ID      = 2026-012AC
CENTER_NAME    = EARTH
REF_FRAME      = TEME
TIME_SYSTEM    = UTC
MEAN_ELEMENT_THEORY = SGP/SGP4

EPOCH          = 2026-02-07T06:00:02.999808
MEAN_MOTION    = 15.67873799
ECCENTRICITY   = .00011384
INCLINATION    = 42.9989
RA_OF_ASC_NODE = 127.9700
ARG_OF_PERICENTER = 272.1905
MEAN_ANOMALY   = 218.4337

EPHEMERIS_TYPE = 0
CLASSIFICATION_TYPE = U
NORAD_CAT_ID   = 67519
ELEMENT_SET_NO = 999
REV_AT_EPOCH   = 433
BSTAR          = -.19205527E-1
MEAN_MOTION_DOT = -.1928429E-1
MEAN_MOTION_DDOT = 0

CCSDS_OMM_VERS = 2.0
CREATION_DATE  = 
ORIGINATOR     = 

OBJECT_NAME    = STARLINK-36547
OBJECT_ID      = 2026-012AD
CENTER_NAME    = EARTH
REF_FRAME      = TEME
TIME_SYSTEM    = UTC
MEAN_ELEMENT_THEORY = SGP/SGP4

EPOCH          = 2026-02-07T06:00:02.999808
MEAN_MOTION    = 15.67494184
ECCENTRICITY   = .00011757
INCLINATION    = 42.9991
RA_OF_ASC_NODE = 128.0095
ARG_OF_PERICENTER = 277.5454
MEAN_ANOMALY   = 197.3466

EPHEMERIS_TYPE = 0
CLASSIFICATION_TYPE = U
NORAD_CAT_ID   = 67520
ELEMENT_SET_NO = 999
REV_AT_EPOCH   = 411
BSTAR          = -.19505585E-1
MEAN_MOTION_DOT = -.192816E-1
MEAN_MOTION_DDOT = 0

CCSDS_OMM_VERS = 2.0
CREATION_DATE  = 
ORIGINATOR     = 

OBJECT_NAME    = STARLINK-36444
OBJECT_ID      = 2026-012AE
CENTER_NAME    = EARTH
REF_FRAME      = TEME
TIME_SYSTEM    = UTC
MEAN_ELEMENT_THEORY = SGP/SGP4

EPOCH          = 2026-02-07T06:00:02.999808
MEAN_MOTION    = 15.65821101
ECCENTRICITY   = .00012705
INCLINATION    = 42.9994
RA_OF_ASC_NODE = 128.0792
ARG_OF_PERICENTER = 279.4025
MEAN_ANOMALY   = 167.7689

EPHEMERIS_TYPE = 0
CLASSIFICATION_TYPE = U
NORAD_CAT_ID   = 67521
ELEMENT_SET_NO = 999
REV_AT_EPOCH   = 411
BSTAR          = -.20845028E-1
MEAN_MOTION_DOT = -.1924717E-1
MEAN_MOTION_DDOT = 0

CCSDS_OMM_VERS = 2.0
CREATION_DATE  = 
ORIGINATOR     = 

OBJECT_NAME    = HULIANWANG DIGUI-146
OBJECT_ID      = 2026-013A
CENTER_NAME    = EARTH
REF_FRAME      = TEME
TIME_SYSTEM    = UTC
MEAN_ELEMENT_THEORY = SGP/SGP4

EPOCH          = 2026-02-07T03:39:21.229920
MEAN_MOTION    = 13.85084532
ECCENTRICITY   = .00008028
INCLINATION    = 50.0086
RA_OF_ASC_NODE = 109.7340
ARG_OF_PERICENTER = 330.0711
MEAN_ANOMALY   = 30.0139

EPHEMERIS_TYPE = 0
CLASSIFICATION_TYPE = U
NORAD_CAT_ID   = 67522
ELEMENT_SET_NO = 999
REV_AT_EPOCH   = 263
BSTAR          = .13984811E-3
MEAN_MOTION_DOT = .15E-6
MEAN_MOTION_DDOT = 0

CCSDS_OMM_VERS = 2.0
CREATION_DATE  = 
ORIGINATOR     = 

OBJECT_NAME    = HULIANWANG DIGUI-147
OBJECT_ID      = 2026-013B
CENTER_NAME    = EARTH
REF_FRAME      = TEME
TIME_SYSTEM    = UTC
MEAN_ELEMENT_THEORY = SGP/SGP4

EPOCH          = 2026-02-07T03:37:07.727232
MEAN_MOTION    = 13.85068270
ECCENTRICITY   = .00010043
INCLINATION    = 50.0047
RA_OF_ASC_NODE = 109.7100
ARG_OF_PERICENTER = 18.7436
MEAN_ANOMALY   = 341.3497

EPHEMERIS_TYPE = 0
CLASSIFICATION_TYPE = U
NORAD_CAT_ID   = 67523
ELEMENT_SET_NO = 999
REV_AT_EPOCH   = 263
BSTAR          = .13113892E-3
MEAN_MOTION_DOT = .5E-7
MEAN_MOTION_DDOT = 0

