STARLINK-36538          
1 67512U 26012V   26038.25003472 -.01919083  00000+0 -20146-1 0  9990
2 67512  42.9994 128.1425 0001341 279.4930 142.9350 15.66576238  4171
STARLINK-36531          
1 67513U 26012W   26038.25003472 -.01919290  00000+0 -19433-1 0  9998
2 67513  42.9995 128.1036 0001347 279.9606 158.2503 15.67456897  4115
STARLINK-36530          
1 67514U 26012X   26038.25003472 -.01919428  00000+0 -20207-1 0  9993
2 67514  42.9996 128.1189 0001420 277.5962 154.1424 15.66506303  4111
STARLINK-36543          
1 67515U 26012Y   26038.25003472 -.01919756  00000+0 -21052-1 0  9997
2 67515  42.9994 128.1399 0001417 275.0303 148.2868 15.65503851  4111
STARLINK-36537          
1 67516U 26012Z   26038.25003472 -.01926401  00000+0 -19441-1 0  9992
2 67516  42.9993 128.0394 0001227 282.0686 181.2589 15.67548496  4119
STARLINK-36544          
1 67517U 26012AA  26038.25003472 -.01928250  00000+0 -18745-1 0  9993
2 67517  42.9994 128.0296 0001233 279.0856 188.2222 15.68455346  4173
STARLINK-36412          
1 67518U 26012AB  26038.25003472 -.01919007  00000+0 -19264-1 0  9991
2 67518  42.9994 127.9932 0001164 275.9320 205.8308 15.67666368  4115
STARLINK-36415          
1 67519U 26012AC  26038.25003472 -.01928429  00000+0 -19206-1 0  9996
2 67519  42.9989 127.9700 0001138 272.1905 218.4337 15.67873799  4336
STARLINK-36547          
1 67520U 26012AD  26038.25003472 -.01928160  00000+0 -19506-1 0  9993
2 67520  42.9991 128.0095 0001175 277.5454 197.3466 15.67494184  4110
STARLINK-36444          
1 67521U 26012AE  26038.25003472 -.01924717  00000+0 -20845-1 0  9996
2 67521  42.9994 128.0792 0001270 279.4025 167.7689 15.65821101  4118
HULIANWANG DIGUI-146    
1 67522U 26013A   26038.15232905  .00000015  00000+0  13985-3 0  9994
2 67522  50.0086 109.7340 0000802 330.0711  30.0139 13.85084532  2638
HULIANWANG DIGUI-147    
1 67523U 26013B   26038.15078388  .00000005  00000+0  13114-3 0  9991
2 67523  50.0047 109.7100 0001004  18.7436 341.3497 13.85068270  2635
